[{"OBJECT_NAME":"COSMOS 2503","OBJECT_ID":"2015-009A","EPOCH":"2026-03-09T16:42:37.703808","MEAN_MOTION":15.06275973,"ECCENTRICITY":0.00153206,"INCLINATION":97.8437,"RA_OF_ASC_NODE":123.7175,"ARG_OF_PERICENTER":225.745,"MEAN_ANOMALY":134.252,"EPHEMERIS_TYPE":0,"CLASSIFICATION_TYPE":"U","NORAD_CAT_ID":40420,"ELEMENT_SET_NO":999,"REV_AT_EPOCH":60395,"BSTAR":0.00019589832,"MEAN_MOTION_DOT":2.817e-5,"MEAN_MOTION_DDOT":0},{"OBJECT_NAME":"STARLINK-3525","OBJECT_ID":"2022-016V","EPOCH":"2026-03-09T22:28:28.708032","MEAN_MOTION":15.08831494,"ECCENTRICITY":0.00013765,"INCLINATION":53.2169,"RA_OF_ASC_NODE":318.025,"ARG_OF_PERICENTER":84.0721,"MEAN_ANOMALY":276.0428,"EPHEMERIS_TYPE":0,"CLASSIFICATION_TYPE":"U","NORAD_CAT_ID":51733,"ELEMENT_SET_NO":999,"REV_AT_EPOCH":22360,"BSTAR":-0.00016468254,"MEAN_MOTION_DOT":-2.907e-5,"MEAN_MOTION_DDOT":0}]
